2024-166B               
1 61180U 24166B   26067.67341263  .00038147  00000+0  25198-3 0  9998
2 61180  96.6921 322.5475 0002182 351.2198   8.9031 15.75502359 84916
STARLINK-11697 [DTC]    
1 63553U 25075F   26068.26173765  .00209474  00000+0  15883-2 0  9992
2 63553  43.0005 156.1731 0001221 241.9438 118.1306 15.70943692 53180
