[{"OBJECT_NAME":"OBJECT B","OBJECT_ID":"2024-166B","EPOCH":"2026-03-08T16:09:42.851232","MEAN_MOTION":15.75502359,"ECCENTRICITY":0.0002182,"INCLINATION":96.6921,"RA_OF_ASC_NODE":322.5475,"ARG_OF_PERICENTER":351.2198,"MEAN_ANOMALY":8.9031,"EPHEMERIS_TYPE":0,"CLASSIFICATION_TYPE":"U","NORAD_CAT_ID":61180,"ELEMENT_SET_NO":999,"REV_AT_EPOCH":8491,"BSTAR":0.00025198,"MEAN_MOTION_DOT":0.00038147,"MEAN_MOTION_DDOT":0},{"OBJECT_NAME":"STARLINK-11697 [DTC]","OBJECT_ID":"2025-075F","EPOCH":"2026-03-09T06:16:54.132960","MEAN_MOTION":15.70943692,"ECCENTRICITY":0.00012211,"INCLINATION":43.0005,"RA_OF_ASC_NODE":156.1731,"ARG_OF_PERICENTER":241.9438,"MEAN_ANOMALY":118.1306,"EPHEMERIS_TYPE":0,"CLASSIFICATION_TYPE":"U","NORAD_CAT_ID":63553,"ELEMENT_SET_NO":999,"REV_AT_EPOCH":5318,"BSTAR":0.0015882524,"MEAN_MOTION_DOT":0.00209474,"MEAN_MOTION_DDOT":0}]
